IRIDIUM 8 [+]           
1 24792U 97020A   16307.41923911  .00000200  00000-0  64457-4 0  9991
2 24792  86.3987  53.4905 0002190  97.9017 262.2427 14.34222528 20693
IRIDIUM 7 [+]           
1 24793U 97020B   16307.41290811  .00000198  00000-0  63652-4 0  9990
2 24793  86.3991  53.7633 0002145  97.4905 262.6535 14.34220879 20692
IRIDIUM 6 [+]           
1 24794U 97020C   16307.40647404  .00000193  00000-0  61776-4 0  9994
2 24794  86.3989  53.7020 0002122  96.1918 263.9520 14.34219673 20693
IRIDIUM 5 [+]           
1 24795U 97020D   16307.40024444  .00000213  00000-0  69054-4 0  9998
2 24795  86.3993  53.7216 0002001  97.6661 262.4762 14.34220478 20779
IRIDIUM 4 [-]           
1 24796U 97020E   16307.40332426  .00000166  00000-0  51408-4 0  9992
2 24796  86.3984  52.8043 0002214  95.1645 331.1669 14.35116190 20775
IRIDIUM 914 [-]         
1 24836U 97030A   16307.39251333  .00000124  00000-0  34057-4 0  9998
2 24836  86.3944  70.1749 0003520 111.6874 248.4700 14.38717046 16334
IRIDIUM 12 [+]          
1 24837U 97030B   16307.49941714  .00000089  00000-0  24637-4 0  9992
2 24837  86.3948  84.8663 0002048  96.4343 332.5341 14.34216486 14456
IRIDIUM 10 [+]          
1 24839U 97030D   16307.48631562  .00000093  00000-0  26181-4 0  9991
2 24839  86.3947  84.8528 0002087  96.6984 330.0968 14.34215371 14464
IRIDIUM 13 [+]          
1 24840U 97030E   16307.49238683  .00000086  00000-0  23591-4 0  9995
2 24840  86.3949  84.9857 0001965  99.9272 260.2146 14.34214867 14454
IRIDIUM 16 [-]          
1 24841U 97030F   16307.42537737  .00000148  00000-0  43603-4 0  9996
2 24841  86.4026  84.9917 0001307  13.1600 346.9631 14.36667477 15028
IRIDIUM 911 [-]         
1 24842U 97030G   16307.44896456  .00000156  00000-0  38962-4 0  9996
2 24842  86.4452  85.9009 0016405 120.3377 239.9450 14.44903914 20206
IRIDIUM 15 [+]          
1 24869U 97034A   16307.46399164 -.00000013  00000-0 -11739-4 0  9992
2 24869  86.3928 116.9061 0001948  79.6086 280.5330 14.34216837 11416
IRIDIUM 17 [-]          
1 24870U 97034B   16307.45258883  .00000131  00000-0  38471-4 0  9996
2 24870  86.3934 115.2025 0001151 151.9757 208.1502 14.35714038 11641
IRIDIUM 920 [-]         
1 24871U 97034C   16307.47604763  .00000124  00000-0  33521-4 0  9994
2 24871  86.3950 101.9170 0012128  16.6719 343.4876 14.39435666 13734
IRIDIUM 18 [+]          
1 24872U 97034D   16307.44496339 -.00000015  00000-0 -12401-4 0  9995
2 24872  86.3936 116.8729 0001907  83.7889 276.3524 14.34216853 11417
IRIDIUM 921 [-]         
1 24873U 97034E   16307.56888917  .00001715  00000-0  10088-3 0  9990
2 24873  86.3964 173.0533 0009817 121.6759 238.5438 15.10903168 53870
IRIDIUM 26 [-]          
1 24903U 97043A   16307.52543650  .00000122  00000-0  35651-4 0  9997
2 24903  86.3975 349.7156 0002137  88.8869  28.3357 14.35218646  5466
IRIDIUM 25 [+]          
1 24904U 97043B   16307.53276301  .00000153  00000-0  47629-4 0  9997
2 24904  86.3968 350.2079 0002206  89.8733 270.2715 14.34219452  5346
IRIDIUM 46 [+]          
1 24905U 97043C   16307.26637143  .00000163  00000-0  51036-4 0  9991
2 24905  86.3978 350.8528 0002279  91.4757 268.6700 14.34219321  5304
IRIDIUM 23 [+]          
1 24906U 97043D   16307.56050442  .00000164  00000-0  51420-4 0  9994
2 24906  86.3983 350.2104 0002332  90.7812  19.7580 14.34222419  5357
IRIDIUM 22 [+]          
1 24907U 97043E   16307.51373654  .00000160  00000-0  50012-4 0  9995
2 24907  86.3980 350.8583 0002242  92.5617 267.5835 14.34219632  5343
DUMMY MASS 1 [-]        
1 24925U 97048A   16306.71021100  .00000123  00000-0  11056-4 0  9991
2 24925  86.3346 148.3114 0009063 117.6747 242.5398 14.85105289 37823
DUMMY MASS 2 [-]        
1 24926U 97048B   16306.71321581  .00000121  00000-0  10946-4 0  9993
2 24926  86.3348 149.3879 0009700 124.3725 235.8417 14.84873622 37676
IRIDIUM 29 [-]          
1 24944U 97051A   16307.35766464  .00000113  00000-0  32908-4 0  9994
2 24944  86.4000  21.7707 0002416 100.4740 259.6728 14.34606992  1909
IRIDIUM 32 [+]          
1 24945U 97051B   16307.26354542  .00000225  00000-0  73327-4 0  9999
2 24945  86.3994  21.9783 0002160  93.8469 266.2973 14.34220110  1894
IRIDIUM 33 [-]          
1 24946U 97051C   16307.32815150  .00000134  00000-0  41284-4 0  9990
2 24946  86.3914  21.6983 0005789 258.4487 101.6059 14.33520223  1530
IRIDIUM 28 [-]          
1 24948U 97051E   16307.30862212  .00000139  00000-0  41494-4 0  9999
2 24948  86.4004  21.1535 0001922  88.5788 271.5629 14.35512966  2035
IRIDIUM 30 [+]          
1 24949U 97051F   16307.32697793  .00000053  00000-0  11937-4 0  9996
2 24949  86.4019  22.0528 0001775  90.2402 269.8997 14.34221256  1881
IRIDIUM 31 [+]          
1 24950U 97051G   16307.32063776  .00000241  00000-0  78851-4 0  9993
2 24950  86.3999  22.0471 0002221 100.1314 260.0132 14.34217647  1890
IRIDIUM 19 [+]          
1 24965U 97056A   16307.37487124  .00000199  00000-0  63871-4 0  9994
2 24965  86.3987  53.5186 0002158  98.0507 262.0934 14.34221295    45
IRIDIUM 35 [+]          
1 24966U 97056B   16307.45731471  .00000206  00000-0  66657-4 0  9995
2 24966  86.3987  53.4799 0002162  97.5607 262.5835 14.34222701    32
IRIDIUM 36 [-]          
1 24967U 97056C   16307.32176519  .00000142  00000-0  42507-4 0  9995
2 24967  86.3998  52.7726 0002137  98.6223 261.5216 14.35564428   314
IRIDIUM 37 [+]          
1 24968U 97056D   16307.43195142  .00000203  00000-0  65265-4 0  9995
2 24968  86.3989  53.6704 0002188  98.5955 261.5489 14.34222177    30
IRIDIUM 34 [+]          
1 24969U 97056E   16307.45095642  .00000155  00000-0  48253-4 0  9996
2 24969  86.3988  53.5990 0002120  99.2084 260.9351 14.34220835    33
IRIDIUM 43 [+]          
1 25039U 97069A   16307.43864012 -.00000112  00000-0 -47185-4 0  9990
2 25039  86.3931 116.8037 0001883  92.3895 267.7516 14.34212643993817
IRIDIUM 41 [+]          
1 25040U 97069B   16307.50204509 -.00000011  00000-0 -10839-4 0  9993
2 25040  86.3934 116.7328 0001911  82.1992 277.9420 14.34216548993827
IRIDIUM 40 [+]          
1 25041U 97069C   16307.45785073 -.00000125  00000-0 -51738-4 0  9997
2 25041  86.3928 116.9757 0002018 117.5437 242.5964 14.34209296993839
IRIDIUM 39 [B]          
1 25042U 97069D   16307.54372020  .00000179  00000-0  44439-4 0  9999
2 25042  86.3892 115.9240 0018585 353.1163   6.9781 14.46101994993968
IRIDIUM 38 [-]          
1 25043U 97069E   16307.54684885  .00000132  00000-0  38818-4 0  9998
2 25043  86.3933 114.1707 0001271  56.8712 303.2606 14.35986510994205
IRIDIUM 42 [-]          
1 25077U 97077A   16307.55975189  .00000121  00000-0  35787-4 0  9995
2 25077  86.3936 116.6964 0001961  87.1540 272.9880 14.34511757989700
IRIDIUM 44 [-]          
1 25078U 97077B   16307.52255121  .00000117  00000-0  32016-4 0  9997
2 25078  86.3934 106.8438 0000852  42.9631 317.1633 14.38072351991059
IRIDIUM 45 [+]          
1 25104U 97082A   16307.31428294  .00000283  00000-0  93995-4 0  9990
2 25104  86.3998  22.0871 0001629  65.2033 294.9332 14.34221058987853
IRIDIUM 24 [-]          
1 25105U 97082B   16307.55419958  .00000130  00000-0  35141-4 0  9994
2 25105  86.3916 331.1767 0012227  21.7440 338.4275 14.39815147990247
IRIDIUM 47 [+]          
1 25106U 97082C   16307.55178224  .00000146  00000-0  44889-4 0  9999
2 25106  86.3965 350.0783 0002354  90.6335 269.5130 14.34224840987887
IRIDIUM 49 [+]          
1 25108U 97082E   16307.51745536  .00000172  00000-0  54516-4 0  9990
2 25108  86.3968 350.1894 0002258  90.4996  27.0008 14.34219518987887
IRIDIUM 52 [+]          
1 25169U 98010A   16307.52409373  .00000079  00000-0  21063-4 0  9993
2 25169  86.3951  85.1417 0002040  97.1150 263.0278 14.34211265979295
IRIDIUM 56 [+]          
1 25170U 98010B   16307.44799328 -.00000019  00000-0 -13947-4 0  9996
2 25170  86.3945  85.2707 0001915  83.2669 276.8745 14.34210624979260
IRIDIUM 54 [+]          
1 25171U 98010C   16307.47970804  .00000124  00000-0  37172-4 0  9991
2 25171  86.3953  85.1801 0002045  96.5549 263.5880 14.34214642979439
IRIDIUM 50 [+]          
1 25172U 98010D   16307.51144180  .00000090  00000-0  24903-4 0  9997
2 25172  86.3952  85.1243 0002143  97.5579 262.5861 14.34215506979272
IRIDIUM 53 [+]          
1 25173U 98010E   16307.46069199  .00000082  00000-0  22071-4 0  9993
2 25173  86.3952  85.1511 0002059  96.7995 263.3435 14.34215835979271
IRIDIUM 51 [S]          
1 25262U 98018A   16307.40658336  .00000238  00000-0  77914-4 0  9990
2 25262  86.4004  53.8003 0002327  96.5467 263.5994 14.34223167978657
IRIDIUM 61 [+]          
1 25263U 98018B   16307.43828726  .00000208  00000-0  67268-4 0  9994
2 25263  86.3989  53.6333 0002171  96.8653 263.2790 14.34221612974368
IRIDIUM 55 [+]          
1 25272U 98019A   16307.30160710  .00000213  00000-0  69088-4 0  9991
2 25272  86.3998  21.8732 0002268  95.0956 265.0498 14.34224383973544
IRIDIUM 57 [-]          
1 25273U 98019B   16307.34455934  .00000107  00000-0  31178-4 0  9992
2 25273  86.4004  22.1530 0002301  95.3151 264.8308 14.34242516973558
IRIDIUM 58 [+]          
1 25274U 98019C   16307.35234506  .00000234  00000-0  76486-4 0  9996
2 25274  86.4004  22.3402 0002315  93.7188 266.4272 14.34224025973559
IRIDIUM 59 [+]          
1 25275U 98019D   16307.35868412  .00000233  00000-0  76016-4 0  9994
2 25275  86.3999  22.2029 0002353  97.3015 262.8448 14.34220811973551
IRIDIUM 60 [+]          
1 25276U 98019E   16307.36502934  .00000214  00000-0  69510-4 0  9990
2 25276  86.3996  21.8288 0002242  95.3011 264.8441 14.34223938973550
IRIDIUM 62 [+]          
1 25285U 98021A   16307.46591139  .00000013  00000-0 -25735-5 0  9999
2 25285  86.3931 318.6974 0002293  88.5777 271.5681 14.34217570972529
IRIDIUM 63 [-]          
1 25286U 98021B   16307.55708880  .00000103  00000-0  29558-4 0  9998
2 25286  86.3961 319.0543 0002378  93.6020  18.3666 14.34622382972556
